[{"OBJECT_NAME":"STARLINK-31560","OBJECT_ID":"2024-060P","EPOCH":"2026-03-09T13:49:23.248128","MEAN_MOTION":15.27564558,"ECCENTRICITY":0.0001084,"INCLINATION":43.0032,"RA_OF_ASC_NODE":260.65,"ARG_OF_PERICENTER":262.1715,"MEAN_ANOMALY":97.9014,"EPHEMERIS_TYPE":0,"CLASSIFICATION_TYPE":"U","NORAD_CAT_ID":59361,"ELEMENT_SET_NO":999,"REV_AT_EPOCH":11004,"BSTAR":-8.8704e-6,"MEAN_MOTION_DOT":-5.06e-6,"MEAN_MOTION_DDOT":0},{"OBJECT_NAME":"TEVEL2-2","OBJECT_ID":"2025-052K","EPOCH":"2026-03-09T15:33:48.895776","MEAN_MOTION":15.30343745,"ECCENTRICITY":0.0004693,"INCLINATION":97.3987,"RA_OF_ASC_NODE":324.77,"ARG_OF_PERICENTER":105.793,"MEAN_ANOMALY":254.3828,"EPHEMERIS_TYPE":0,"CLASSIFICATION_TYPE":"U","NORAD_CAT_ID":63219,"ELEMENT_SET_NO":999,"REV_AT_EPOCH":5485,"BSTAR":0.00069428,"MEAN_MOTION_DOT":0.00020339,"MEAN_MOTION_DDOT":0}]
